CCSDS_OMM_VERS = 2.0
CREATION_DATE  = 
ORIGINATOR     = 

OBJECT_NAME    = ALOS (DAICHI)
OBJECT_ID      = 2006-002A
CENTER_NAME    = EARTH
REF_FRAME      = TEME
TIME_SYSTEM    = UTC
MEAN_ELEMENT_THEORY = SGP/SGP4

EPOCH          = 2025-12-13T20:28:18.098400
MEAN_MOTION    = 14.69492728
ECCENTRICITY   = .00011805
INCLINATION    = 98.1092
RA_OF_ASC_NODE = 299.3326
ARG_OF_PERICENTER = 116.4646
MEAN_ANOMALY   = 243.6681

EPHEMERIS_TYPE = 0
CLASSIFICATION_TYPE = U
NORAD_CAT_ID   = 28931
ELEMENT_SET_NO = 999
REV_AT_EPOCH   = 6087
BSTAR          = .34860401E-3
MEAN_MOTION_DOT = .2017E-4
MEAN_MOTION_DDOT = 0

CCSDS_OMM_VERS = 2.0
CREATION_DATE  = 
ORIGINATOR     = 

OBJECT_NAME    = H-2A R/B
OBJECT_ID      = 2006-002B
CENTER_NAME    = EARTH
REF_FRAME      = TEME
TIME_SYSTEM    = UTC
MEAN_ELEMENT_THEORY = SGP/SGP4

EPOCH          = 2025-12-13T21:48:14.311872
MEAN_MOTION    = 15.14604279
ECCENTRICITY   = .00545557
INCLINATION    = 98.2312
RA_OF_ASC_NODE = 122.7523
ARG_OF_PERICENTER = 172.2817
MEAN_ANOMALY   = 187.9265

EPHEMERIS_TYPE = 0
CLASSIFICATION_TYPE = U
NORAD_CAT_ID   = 28932
ELEMENT_SET_NO = 999
REV_AT_EPOCH   = 8144
BSTAR          = .62649342E-3
MEAN_MOTION_DOT = .11937E-3
MEAN_MOTION_DDOT = 0

CCSDS_OMM_VERS = 2.0
CREATION_DATE  = 
ORIGINATOR     = 

OBJECT_NAME    = RESURS-DK 1
OBJECT_ID      = 2006-021A
CENTER_NAME    = EARTH
REF_FRAME      = TEME
TIME_SYSTEM    = UTC
MEAN_ELEMENT_THEORY = SGP/SGP4

EPOCH          = 2025-12-13T18:09:18.822240
MEAN_MOTION    = 15.12168810
ECCENTRICITY   = .00071323
INCLINATION    = 69.9332
RA_OF_ASC_NODE = 99.2108
ARG_OF_PERICENTER = 258.4187
MEAN_ANOMALY   = 101.6178

EPHEMERIS_TYPE = 0
CLASSIFICATION_TYPE = U
NORAD_CAT_ID   = 29228
ELEMENT_SET_NO = 999
REV_AT_EPOCH   = 7453
BSTAR          = .21607827E-3
MEAN_MOTION_DOT = .3632E-4
MEAN_MOTION_DDOT = 0

CCSDS_OMM_VERS = 2.0
CREATION_DATE  = 
ORIGINATOR     = 

OBJECT_NAME    = CZ-4B R/B
OBJECT_ID      = 2006-046C
CENTER_NAME    = EARTH
REF_FRAME      = TEME
TIME_SYSTEM    = UTC
MEAN_ELEMENT_THEORY = SGP/SGP4

EPOCH          = 2025-12-13T15:03:14.668704
MEAN_MOTION    = 15.15884590
ECCENTRICITY   = .0033345
INCLINATION    = 97.5738
RA_OF_ASC_NODE = 27.7630
ARG_OF_PERICENTER = 203.3131
MEAN_ANOMALY   = 156.6592

EPHEMERIS_TYPE = 0
CLASSIFICATION_TYPE = U
NORAD_CAT_ID   = 29507
ELEMENT_SET_NO = 999
REV_AT_EPOCH   = 4700
BSTAR          = .30514792E-3
MEAN_MOTION_DOT = .5854E-4
MEAN_MOTION_DDOT = 0

CCSDS_OMM_VERS = 2.0
CREATION_DATE  = 
ORIGINATOR     = 

OBJECT_NAME    = CZ-2C R/B
OBJECT_ID      = 2007-010B
CENTER_NAME    = EARTH
REF_FRAME      = TEME
TIME_SYSTEM    = UTC
MEAN_ELEMENT_THEORY = SGP/SGP4

EPOCH          = 2025-12-13T21:59:37.163040
MEAN_MOTION    = 14.20210585
ECCENTRICITY   = .00590388
INCLINATION    = 98.3975
RA_OF_ASC_NODE = 100.5080
ARG_OF_PERICENTER = 182.5750
MEAN_ANOMALY   = 177.5132

EPHEMERIS_TYPE = 0
CLASSIFICATION_TYPE = U
NORAD_CAT_ID   = 31114
ELEMENT_SET_NO = 999
REV_AT_EPOCH   = 96754
BSTAR          = .12132848E-3
MEAN_MOTION_DOT = .223E-5
MEAN_MOTION_DDOT = 0

CCSDS_OMM_VERS = 2.0
CREATION_DATE  = 
ORIGINATOR     = 

OBJECT_NAME    = COSMO-SKYMED 1
OBJECT_ID      = 2007-023A
CENTER_NAME    = EARTH
REF_FRAME      = TEME
TIME_SYSTEM    = UTC
MEAN_ELEMENT_THEORY = SGP/SGP4

EPOCH          = 2025-12-13T23:48:56.530080
MEAN_MOTION    = 14.95776759
ECCENTRICITY   = .00013188
INCLINATION    = 97.8834
RA_OF_ASC_NODE = 173.3995
ARG_OF_PERICENTER = 90.1083
MEAN_ANOMALY   = 270.0289

EPHEMERIS_TYPE = 0
CLASSIFICATION_TYPE = U
NORAD_CAT_ID   = 31598
ELEMENT_SET_NO = 999
REV_AT_EPOCH   = 209
BSTAR          = .42433741E-3
MEAN_MOTION_DOT = .4674E-4
MEAN_MOTION_DDOT = 0

CCSDS_OMM_VERS = 2.0
CREATION_DATE  = 
ORIGINATOR     = 

OBJECT_NAME    = COSMOS 2428
OBJECT_ID      = 2007-029A
CENTER_NAME    = EARTH
REF_FRAME      = TEME
TIME_SYSTEM    = UTC
MEAN_ELEMENT_THEORY = SGP/SGP4

EPOCH          = 2025-12-13T19:12:29.118528
MEAN_MOTION    = 14.12890083
ECCENTRICITY   = .00037288
INCLINATION    = 70.9367
RA_OF_ASC_NODE = 23.6533
ARG_OF_PERICENTER = 21.9618
MEAN_ANOMALY   = 338.1662

EPHEMERIS_TYPE = 0
CLASSIFICATION_TYPE = U
NORAD_CAT_ID   = 31792
ELEMENT_SET_NO = 999
REV_AT_EPOCH   = 95196
BSTAR          = .91826226E-4
MEAN_MOTION_DOT = .123E-5
MEAN_MOTION_DDOT = 0

CCSDS_OMM_VERS = 2.0
CREATION_DATE  = 
ORIGINATOR     = 

OBJECT_NAME    = SL-16 R/B
OBJECT_ID      = 2007-029B
CENTER_NAME    = EARTH
REF_FRAME      = TEME
TIME_SYSTEM    = UTC
MEAN_ELEMENT_THEORY = SGP/SGP4

EPOCH          = 2025-12-14T00:10:48.806976
MEAN_MOTION    = 14.14814687
ECCENTRICITY   = .0002118
INCLINATION    = 70.9755
RA_OF_ASC_NODE = 352.4927
ARG_OF_PERICENTER = 261.9557
MEAN_ANOMALY   = 118.9999

EPHEMERIS_TYPE = 0
CLASSIFICATION_TYPE = U
NORAD_CAT_ID   = 31793
ELEMENT_SET_NO = 999
REV_AT_EPOCH   = 95325
BSTAR          = .19118017E-4
MEAN_MOTION_DOT = -.11E-6
MEAN_MOTION_DDOT = 0

CCSDS_OMM_VERS = 2.0
CREATION_DATE  = 
ORIGINATOR     = 

OBJECT_NAME    = KORONAS-FOTON
OBJECT_ID      = 2009-003A
CENTER_NAME    = EARTH
REF_FRAME      = TEME
TIME_SYSTEM    = UTC
MEAN_ELEMENT_THEORY = SGP/SGP4

EPOCH          = 2025-12-13T19:02:17.658816
MEAN_MOTION    = 15.41222073
ECCENTRICITY   = .0013317
INCLINATION    = 82.4315
RA_OF_ASC_NODE = 5.0145
ARG_OF_PERICENTER = 105.0689
MEAN_ANOMALY   = 255.2032

EPHEMERIS_TYPE = 0
CLASSIFICATION_TYPE = U
NORAD_CAT_ID   = 33504
ELEMENT_SET_NO = 999
REV_AT_EPOCH   = 93250
BSTAR          = .37923847E-3
MEAN_MOTION_DOT = .15844E-3
MEAN_MOTION_DDOT = 0

CCSDS_OMM_VERS = 2.0
CREATION_DATE  = 
ORIGINATOR     = 

OBJECT_NAME    = CZ-2C R/B
OBJECT_ID      = 2011-030B
CENTER_NAME    = EARTH
REF_FRAME      = TEME
TIME_SYSTEM    = UTC
MEAN_ELEMENT_THEORY = SGP/SGP4

EPOCH          = 2025-12-13T21:02:33.969120
MEAN_MOTION    = 14.80907595
ECCENTRICITY   = .00513148
INCLINATION    = 97.8410
RA_OF_ASC_NODE = 301.9583
ARG_OF_PERICENTER = 269.8012
MEAN_ANOMALY   = 147.4063

EPHEMERIS_TYPE = 0
CLASSIFICATION_TYPE = U
NORAD_CAT_ID   = 37731
ELEMENT_SET_NO = 999
REV_AT_EPOCH   = 77739
BSTAR          = .26199369E-3
MEAN_MOTION_DOT = .2016E-4
MEAN_MOTION_DDOT = 0

CCSDS_OMM_VERS = 2.0
CREATION_DATE  = 
ORIGINATOR     = 

OBJECT_NAME    = H-2A R/B
OBJECT_ID      = 2012-025E
CENTER_NAME    = EARTH
REF_FRAME      = TEME
TIME_SYSTEM    = UTC
MEAN_ELEMENT_THEORY = SGP/SGP4

EPOCH          = 2025-12-13T21:53:04.631424
MEAN_MOTION    = 14.94464957
ECCENTRICITY   = .00436885
INCLINATION    = 98.4603
RA_OF_ASC_NODE = 303.2326
ARG_OF_PERICENTER = 232.2256
MEAN_ANOMALY   = 127.5001

EPHEMERIS_TYPE = 0
CLASSIFICATION_TYPE = U
NORAD_CAT_ID   = 38341
ELEMENT_SET_NO = 999
REV_AT_EPOCH   = 73540
BSTAR          = .35855131E-3
MEAN_MOTION_DOT = .3872E-4
MEAN_MOTION_DDOT = 0

CCSDS_OMM_VERS = 2.0
CREATION_DATE  = 
ORIGINATOR     = 

OBJECT_NAME    = SHIJIAN-16 (SJ-16)
OBJECT_ID      = 2013-057A
CENTER_NAME    = EARTH
REF_FRAME      = TEME
TIME_SYSTEM    = UTC
MEAN_ELEMENT_THEORY = SGP/SGP4

EPOCH          = 2025-12-14T00:15:03.139200
MEAN_MOTION    = 14.91989540
ECCENTRICITY   = .00176738
INCLINATION    = 74.9734
RA_OF_ASC_NODE = 347.2511
ARG_OF_PERICENTER = 316.8992
MEAN_ANOMALY   = 43.0811

EPHEMERIS_TYPE = 0
CLASSIFICATION_TYPE = U
NORAD_CAT_ID   = 39358
ELEMENT_SET_NO = 999
REV_AT_EPOCH   = 65872
BSTAR          = .17914027E-3
MEAN_MOTION_DOT = .1792E-4
MEAN_MOTION_DDOT = 0

