ALOS (DAICHI)           
1 28931U 06002A   25347.85298725  .00002017  00000+0  34860-3 0  9991
2 28931  98.1092 299.3326 0001180 116.4646 243.6681 14.69492728 60879
H-2A R/B                
1 28932U 06002B   25347.90849898  .00011937  00000+0  62649-3 0  9998
2 28932  98.2312 122.7523 0054555 172.2817 187.9265 15.14604279 81449
RESURS-DK 1             
1 29228U 06021A   25347.75646785  .00003632  00000+0  21608-3 0  9994
2 29228  69.9332  99.2108 0007132 258.4187 101.6178 15.12168810 74530
CZ-4B R/B               
1 29507U 06046C   25347.62725311  .00005854  00000+0  30515-3 0  9995
2 29507  97.5738  27.7630 0033345 203.3131 156.6592 15.15884590 47001
CZ-2C R/B               
1 31114U 07010B   25347.91640235  .00000223  00000+0  12133-3 0  9998
2 31114  98.3975 100.5080 0059038 182.5750 177.5132 14.20210585967545
COSMO-SKYMED 1          
1 31598U 07023A   25347.99232095  .00004674  00000+0  42434-3 0  9998
2 31598  97.8834 173.3995 0001318  90.1083 270.0289 14.95776759  2097
COSMOS 2428             
1 31792U 07029A   25347.80033702  .00000123  00000+0  91826-4 0  9999
2 31792  70.9367  23.6533 0003728  21.9618 338.1662 14.12890083951960
SL-16 R/B               
1 31793U 07029B   25348.00750934 -.00000011  00000+0  19118-4 0  9997
2 31793  70.9755 352.4927 0002118 261.9557 118.9999 14.14814687953251
KORONAS-FOTON           
1 33504U 09003A   25347.79325994  .00015844  00000+0  37924-3 0  9995
2 33504  82.4315   5.0145 0013317 105.0689 255.2032 15.41222073932504
CZ-2C R/B               
1 37731U 11030B   25347.87678205  .00002016  00000+0  26199-3 0  9998
2 37731  97.8410 301.9583 0051314 269.8012 147.4063 14.80907595777399
H-2A R/B                
1 38341U 12025E   25347.91185916  .00003872  00000+0  35855-3 0  9998
2 38341  98.4603 303.2326 0043688 232.2256 127.5001 14.94464957735409
SHIJIAN-16 (SJ-16)      
1 39358U 13057A   25348.01045300  .00001792  00000+0  17914-3 0  9992
2 39358  74.9734 347.2511 0017673 316.8992  43.0811 14.91989540658724
